"name","address","phone","specification","lat","long"
"Ecole primaire de la Forêt","LE BOURG 42670 BELMONT DE LA LOIRE","0477636542","","46.16539360450339","4.346540602164019"
"Ecole maternelle Jaurès","4 rue du Colonel Marey 42500 LE CHAMBON FEUGEROLLES","0477610270","REP","45.395209426831215","4.322800191508945"
"Ecole primaire Champdieu","106 rue de la Mairie 42600 CHAMPDIEU","0477971275","","45.64571676792761","4.046699552318216"
"Ecole élémentaire Bourg","LE BOURG 42430 CHAMPOLY","0477650226","","45.85716969224667","3.832969661788861"
"Ecole primaire Bourg","BOURG 42410 LA CHAPELLE VILLARS","0474878383","","45.472732457896825","4.717529412485948"
"Ecole primaire Bourg","13 RUE GRANDE RUE 42410 CHAVANAY","0474872228","","45.41449289094946","4.731129925626313"
"Ecole primaire Les Chênes de Beylieu","Lieu-dit le Bourg 42560 CHENEREILLES","0477765692","","45.48425881938543","4.079089639537162"
"Ecole primaire","Le Bourg 42114 CHIRASSIMONT","0477624142","","45.9137243392772","4.285979835644442"
"Ecole primaire Bourg","70 rue des écoliers 42110 CIVENS","0477260169","","45.780291464436914","4.252120307900068"
"Ecole primaire","Rue du Docteur Ouillon 42123 CORDELLE","0477649219","","45.94289664672208","4.064700290517023"
"Ecole primaire Bourg","Rue du 21 Août 1944 42380 ESTIVAREILLES","0477502040","","45.41537239016072","4.009299847423306"
"Ecole primaire d'Egarande","Place des Combattants 42320 FARNAY","0477735834","","45.492526373888914","4.597190596674627"
"Ecole maternelle Beaucueil","26 rue Pierre Brossolette 42153 RIORGES","0477701726","","46.046990382921244","4.044659687152364"
"Ecole élémentaire Bourg","Impasse du lavoir 42600 ROCHE","0477762008","","45.61489359263881","3.948240205618993"
"Ecole élémentaire Cousteau","3 rue Louis Comté 42230 ROCHE LA MOLIERE","0477906009","","45.4331390468026","4.3210601093644385"
"Ecole élémentaire Côte Durieux","14 rue de la Chiorarie 42230 ROCHE LA MOLIERE","0477906005","","45.43581997644315","4.335969937672153"
"Ecole élémentaire Bourg","175 rue des sources 42310 SAIL LES BAINS","0477641221","","46.238043185020345","3.846370325045467"
"Ecole primaire","BOURG 42510 NERVIEUX","0477272608","","45.805375461951975","4.1545802549605115"
"Ecole élémentaire Bourg","5 place du capitaine Noutary 42370 LES NOES","0477642755","","46.04147229582009","3.8524394062441703"
"Ecole primaire Bourg","LE BOURG 42120 NOTRE DAME DE BOISSET","0477620330","","45.99374282107786","4.129630581263219"
"Ecole primaire Bourg","LE BOURG 42750 MARS","0477605156","","46.152991599540215","4.2457806071860125"
"Ecole primaire Bourg","Bourg 42560 GUMIERES","0477767521","","45.53154790707938","3.9866003540766513"
"Ecole élémentaire Bourg","LE BOURG 42600 LERIGNEUX","0477762544","","45.60182020935769","3.9648894949467723"
"Ecole primaire Les Prés","55 rue Victor Hugo 42210 ST ANDRE LE PUY","0477545393","","45.645701379513426","4.258989764122126"
"Ecole primaire Chabure","3 route de la Chabure 42400 ST CHAMOND","0477222950","","45.46230882477137","4.499890291210588"
"Ecole primaire Garat-Asile Fournas","10 rue asile Fournas 42400 ST CHAMOND","0477222700","","45.47791248458202","4.51441941998363"
"Ecole primaire Bourg","LE BOURG 42123 ST CYR DE FAVIERES","0477649799","","45.96679483863536","4.09448992451763"
"Ecole primaire Bourg","LE BOURG 42111 ST DIDIER SUR ROCHEFORT","0477979646","","45.79312669421189","3.8425703561763997"
"Ecole primaire d'application Beaulieu 1","20 rue Henri Dunant 42000 ST ETIENNE","0477251250","REP","45.42721785811953","4.409150402675103"
"Ecole Edith Piaf primaire","18 place de Verdun 42640 ST FORGEUX LESPINASSE","0477656412","","46.12311238063895","3.9304900604860356"
"Ecole primaire Soleymieux et St Jean Soleymieux","58 route de Marols 42560 ST JEAN SOLEYMIEUX","0477767362","","45.5028230056956","4.039739935945666"
"Ecole maternelle Les Erables","Rue des Ecoles 42170 ST JUST ST RAMBERT","0477365022","","45.50433608875882","4.262980586880927"
"Ecole élémentaire Thibaud","11 boulevard de la Libération 42170 ST JUST ST RAMBERT","0477523410","","45.49877778451623","4.241820205291547"
"Ecole maternelle","1 RUE DU 11 NOVEMBRE 1918 42610 ST ROMAIN LE PUY","0477766340","","45.554160251554855","4.125589726595289"
"Ecole primaire","11 RUE DU DAUPHINE 42220 ST SAUVEUR EN RUE","0477392340","","45.270941944584116","4.495360373520446"
"Ecole élémentaire Bourg","LE BOURG 42130 ST SIXTE","0477246200","","45.77523025947874","3.9810897645234373"
"Ecole primaire Saint-Victor-sur-Loire","Chemin des Tourettes 42100 ST ETIENNE","0477900057","","45.444173019747936","4.264489434346834"
"Ecole primaire Bourg","LE BOURG 42990 SAUVAIN","0477768003","","45.674447286603794","3.9049302604847846"
"Ecole maternelle Lamartine","4 rue 8 mai 1945 42650 ST JEAN BONNEFONDS","0477955683","","45.44793968632496","4.444700385489452"
"Ecole primaire Bourg","AU BOURG 42440 ST JEAN LA VETRE","0477978268","","45.787777263109064","3.80559979347205"
"Ecole maternelle Jean Plathey","Rue Antonin-Croizier 42350 LA TALAUDIERE","0477338184","","45.47768884721441","4.4328900686824015"
"Ecole primaire Terrenoire Janon","4 rue Paul Langevin TERRENOIRE 42100 ST ETIENNE","0477957315","","45.43024010523887","4.432829754627156"
"Ecole élémentaire Bourg","LE BOURG 42830 LA TUILIERE","0477629399","","45.94530963601194","3.8013795668305757"
"Ecole primaire Bourg","38 impasse de l'école 42110 VALEILLE","0477289803","","45.707631488456244","4.305800011779904"
"Ecole primaire","Place de la Mairie 42155 VILLEMONTAIS","0477631812","","45.97884612239301","3.950160305134136"
"Ecole élémentaire Odette Lagrange","41 rue de la mairie 42840 COMBRE","0474644402","","46.025507672233836","4.263290630618111"
"Ecole maternelle Prévert","Rue Jacques Prevert 42170 ST JUST ST RAMBERT","0477524881","","45.497520598288965","4.2424695128862995"
"Ecole primaire Les Cordes","5 rue de l'alcazar 42700 FIRMINY","0477561488","","45.39415301007778","4.291300378960844"
"Ecole maternelle Jean Moulin","1  RUE D AUVERGNE 42800 RIVE DE GIER","0477751060","","45.52070872937476","4.601740208233892"
"Ecole primaire Beauvallon","1 RUE DE L'AVENIR 42570 ST HEAND","0477304204","","45.53040823449288","4.371780389518076"
"Ecole primaire","Place du 8 Mai 1945 42410 PELUSSIN","0474876073","","45.41843874360381","4.679259374839098"
"Ecole primaire Louis Pasteur","2 boulevard Pasteur 42160 ANDREZIEUX BOUTHEON","0477552255","","45.5268726638569","4.2575702158532085"
"Ecole maternelle Pierre Verjat","Rue du Pêchier 42390 VILLARS","0477747502","","45.47602130182231","4.356029612096316"
"Ecole primaire Bourg","4 rue des Ecoles 42720 VOUGY","0477653481","","46.10240996658773","4.120080371019859"
"Ecole primaire Jules Ferry","4 rue Jules Ferry 42270 ST PRIEST EN JAREZ","0477740009","","45.47236443771016","4.378609641196406"
"Ecole maternelle Grand Fraisses","15 bis rue Gabriel Péri 42490 FRAISSES","0477562250","","45.39027920294971","4.264569428781169"
"Ecole élémentaire Chemin Rouge","2 rue des Terres Rouges 42600 MONTBRISON","0477582824","","45.612391451317265","4.057690591790539"
"Ecole élémentaire Jean Ravon","2 rue des Cyclotouristes 42390 VILLARS","0477740598","","45.463382037381635","4.360369429887562"
"Ecole élémentaire Lavieu","Rue Pasteur 42400 ST CHAMOND","0477222449","","45.47841122500011","4.50580056568279"
"Ecole élémentaire Terrenoire Bourg","3 rue Jaboulay TERRENOIRE 42100 ST ETIENNE","0477957318","","45.43362482403414","4.4389303091964205"
"Ecole primaire Bourg","196 montée des Ecoles 42153 RIORGES","0477710070","","46.038202903037224","4.033130127359065"
"Ecole primaire Chazeau","4 place des Carmes 42700 FIRMINY","0477560216","","45.371532998507774","4.277349589018241"
"Ecole primaire","350 GRANDE RUE 42155 ST LEGER SUR ROANNE","0477668046","","46.04174095640635","3.998379909894301"
"Ecole élémentaire Le Colombier","RUE DR.ROUARTS 42370 RENAISON","0477642262","","46.05052742886533","3.924930013753654"
"Ecole maternelle Villon","Boulevard de Fonsala 42400 ST CHAMOND","0477226887","REP+","45.47628992883215","4.529400470097042"
"Ecole primaire Les Vernes","40 rue du Professeur Roux 42800 RIVE DE GIER","0477750843","","45.53048840383795","4.610910577354682"
"Ecole élémentaire","3 rue Pierre Vernay 42360 PANISSIERES","0477286409","","45.79329277304163","4.339339506981612"
"Ecole maternelle Carnot","5 avenue Carnot 42300 ROANNE","0477721256","","46.03977507339668","4.066609739571396"
"Ecole élémentaire Vivaraize","93 rue Jean-Baptiste David 42100 ST ETIENNE","0477251967","","45.42499805072229","4.400150455502819"
"Ecole primaire Bourg","110 rue des écoles AU BOURG 42120 PERREUX","0477702464","","46.03800725168624","4.123939759664153"
"Ecole primaire La clé des montagnes","LE BOURG 42920 CHALMAZEL JEANSAGNIERE","0477248723","","45.70254133615097","3.8504997521200863"
"Ecole maternelle Bois de La Dame","Rue Colette 42170 ST JUST ST RAMBERT","0477520379","","45.48903194702846","4.240090151995788"
"Ecole élémentaire","Rue Bayard 42600 SAVIGNEUX","0477967961","","45.611820211430306","4.0856105573128705"
"Ecole primaire Bourg","LE BOURG 42110 PONCINS","0477278348","","45.72648104124173","4.160590315834437"
"Ecole élémentaire Bourg","2 rue de Vermoizy 42300 MABLY","0477703332","","46.08489859390277","4.062640174075613"
"Ecole primaire Solaure","19 rue Ambroise Paré 42100 ST ETIENNE","0477574110","","45.40917177565804","4.386389553791747"
"Ecole élémentaire Beaucueil","469 rue Pierre Dubreuil 42153 RIORGES","0477716420","","46.04754359150084","4.0451202801969055"
"Ecole primaire","Rue du Commerce 42620 ST MARTIN D ESTREAUX","0477640231","","46.2057642226938","3.798460452641668"
"Ecole primaire Les Cèdres","29 rue Saint Just 42480 LA FOUILLOUSE","0477301582","","45.50463395310021","4.308460380818227"
"Ecole primaire Jules Ferry","1  RUE ALEXANDRE POURCEL 42100 ST ETIENNE","0477571671","","45.42345563343371","4.3927502046951385"
"Ecole primaire","11 bis rue de la cure 42800 ST MARTIN LA PLAINE","0477754150","","45.54548588076395","4.593180594360306"
"Ecole primaire Cézanne","88  GRANDE RUE 42400 ST CHAMOND","0477220446","REP+","45.48152314087852","4.526980161618657"
"Ecole primaire","Place Rolle 42130 BOEN SUR LIGNON","0477241108","","45.747204359005025","4.003969595864753"
"Ecole primaire Mayollet","74 rue de Villemontais 42300 ROANNE","0477720879","","46.023490371898355","4.054829616194101"
"Ecole primaire Marengo","8 rue Marengo 42300 ROANNE","0477720744","","46.0353586179405","4.075099632728289"
"Ecole primaire Bourg","Place Jean Dussurgey 42210 CRAINTILLEUX","0477546526","","45.584534613119295","4.234320531213094"
"Ecole primaire Arsenal","1  RUE DU COLOMBIER 42300 ROANNE","0477721076","","46.06524080630957","4.078680507249591"
"Ecole élémentaire Tilleuls","Rue des Ecoles 42170 ST JUST ST RAMBERT","0477364717","","45.50433608875882","4.262980586880927"
"Ecole primaire","83 rue du 19 mars 1962 42820 AMBIERLE","0477656511","","46.10630165369291","3.893860583808052"
"Ecole primaire Lamartine","Square du Souvenir Français 42400 ST CHAMOND","0477222304","REP","45.477308794007676","4.5117004898072075"
"Ecole élémentaire Prugnat","5 rue du Premier Mai 42800 RIVE DE GIER","0477750842","","45.53259272620809","4.625389759146223"
"Ecole primaire Chantemerle","4 rue Chantemerle 42190 CHARLIEU","0477602794","","46.1598723324864","4.175700088612098"
"Ecole élémentaire Jacquard","6 rue Victor Duchamp 42000 ST ETIENNE","0477320110","REP","45.44247270470279","4.380290005475414"
"Ecole primaire Bourg","20 place des Combattants 42210 BELLEGARDE EN FOREZ","0477544858","","45.64773247437446","4.298529686298444"
"Ecole élémentaire Ferry Zay","2 rue Jean Zay 42490 FRAISSES","0760306034","","45.38782937195497","4.270009386707638"
"Ecole primaire Montchovet","10 impasse DE LA PALLE 42100 ST ETIENNE","0477252572","REP","45.42764323329733","4.4200494130770736"
"Ecole élémentaire Burdeau-Hugo","9 rue Burdeau 42800 RIVE DE GIER","0477756306","","45.52654225028625","4.61757951108556"
"Ecole primaire Jaures-Rousseau","Rue Colonel Marey 42500 LE CHAMBON FEUGEROLLES","0477610226","REP","45.39526178752031","4.3233996537796715"
"Ecole maternelle Gayotti","37 boulevard Pierre Joannon 42400 ST CHAMOND","0477222974","REP","45.461025180809976","4.5082396547764905"
"Ecole primaire St Victor Le Bréat","Route du Breat 42100 ST ETIENNE","0477908224","","45.45016983889674","4.27159014690262"
"Ecole primaire","Rue des Ecoles 42470 ST SYMPHORIEN DE LAY","0477647251","","45.94719783091151","4.209809530325444"
"La Clé des Montagnes Elémentaire","Bourg 42990 ST GEORGES EN COUZAN","0477248434","","45.70290763955118","3.931180586468107"
"Ecole primaire Bourg","LE BOURG 42310 URBISE","0477641466","","46.253756983258825","3.8920699237701015"
"Ecole primaire de Boisset-Saint-Priest","653  RUE DE L'OZON BOISSET-SAINT-PRIEST 42560 BOISSET ST PRIEST","0477763404","","45.508479154275","4.128380431097048"
"Ecole élémentaire","80 rue des écoliers 42260 BUSSY ALBIEUX","0477246474","","45.79477101482973","4.034009596061658"
"Ecole primaire La Marelle","84 rue de la fontaine 42460 LE CERGNE","0474898240","","46.12170388698469","4.306909751590178"
"Ecole primaire Bourg","20 rue de la fontaine disparue 42800 CHAGNON","0477756108","","45.5347309974553","4.554360566533417"
"Ecole primaire Bourg","LE BOURG 42600 CHALAIN LE COMTAL","0477761580","","45.64598385044988","4.169429475942982"
"Ecole primaire Premier Envol","2 route  de Magneux 42110 CHAMBEON","0477278398","","45.69701411915099","4.175689875330994"
"Ecole primaire Bourg","LE BOURG 42940 CHATELNEUF","0477768875","","45.63792342785123","3.9838903013014484"
"Ecole primaire Jules Verne","75 route de la Gare 42800 GENILAC","0477837972","","45.54491841772084","4.56840954106495"
"Ecole maternelle Anne-Marie Reverchon","7 rue du losange 42800 DARGOIRE","0477894629","","45.55998780609106","4.666619666981529"
"Ecole primaire Bourg","62 route neuve 42740 DOIZIEUX","0477209612","","45.42772587606476","4.585889357295064"
"Ecole élémentaire Waldeck Rousseau","1 rue Jules Ferry 42700 FIRMINY","0477562713","","45.38576580583246","4.288420608746997"
"Ecole maternelle Périvaure","6 impasse la Périvaure 42490 FRAISSES","0477561493","","45.38646142912542","4.271119437743922"
"Ecole primaire des Milles et Unes Découvertes","Rue de la passementerie 42140 GRAMMOND","0477207426","","45.56607827332067","4.43992959366727"
"Ecole maternelle Beauregard","27 rue des prés Lacroix 42600 MONTBRISON","0477581721","","45.6118490692239","4.056950114241373"
"Ecole maternelle","Boulevard Bonnassieux 42360 PANISSIERES","0477286482","","45.79373177632423","4.336570511178087"
"Ecole maternelle","124 rue des Monts de la Madeleine 42155 POUILLY LES NONAINS","0477668711","","46.03876921871874","3.9796804609925474"
"Ecole maternelle","Rue Muzelle 42630 REGNY","0477630082","","45.99075895918864","4.214010137336943"
"Ecole maternelle Marcel Pagnol","6 rue Chapelon LE MONTCEL 42150 LA RICAMARIE","0477571690","REP+","45.40652134628339","4.363629844589302"
"Ecole maternelle Pontet","331 rue Aristide Briand 42153 RIORGES","0477701047","","46.05058546169654","4.062110155245747"
"Ecole maternelle Hugo","7 rue Victor Hugo 42800 RIVE DE GIER","0477750853","","45.52803640048039","4.617019530269272"
"Ecole élémentaire Paul Bert","8 rue Paul Bert 42300 ROANNE","0477720944","","46.04089864499988","4.069609743390894"
"Ecole primaire","Rue des Ecoles 42155 OUCHES","0477668645","","46.015522947455224","3.987679832207822"
"Ecole primaire Bourg","37 rue de l'église 42120 PARIGNY","0967398938","","45.990685343514265","4.097660168680333"
"Ecole élémentaire Bourg","37 chemin des Pierres 42600 PRALONG","0477971476","","45.66558887236799","4.03075036912505"
"Ecole élémentaire Bourg","Rue Charles de Gaule 42210 MARCLOPT","0477946865","","45.66483803741827","4.219390141831879"
"Ecole primaire","Route de Coutouvre 42840 MONTAGNY","0477661044","","46.03432486278464","4.234740354623442"
"Ecole primaire","Rue des Ecoles 42510 NERONDE","0477273497","","45.836769785088144","4.237029397464742"
"Ecole élémentaire Bourg","60 rue des granges 42520 LUPE","0474873119","","45.37286098797267","4.704069483452298"
"Ecole élémentaire Bourg","LE BOURG 42114 MACHEZAL","0477624247","","45.92276632594255","4.302369476589124"
"Ecole primaire Bourg","LE BOURG 42600 MAGNEUX HAUTE RIVE","0477761305","","45.67082119517644","4.172180343082745"
"Ecole élémentaire","43 rue d'Urfé 42260 GREZOLLES","0477625790","","45.863393052575525","3.950560238441747"
"Ecole primaire Les Mésanges","Rue des Mésanges 42380 ST BONNET LE CHATEAU","0477500887","","45.41982528869339","4.067280626807813"
"Ecole primaire Bourg","LE BOURG 42940 ST BONNET LE COURREAU","0477768418","","45.65945171102395","3.9439497867039734"
"Ecole primaire Pilat","6 chemin des Combes 42400 ST CHAMOND","0477220206","","45.46041041705301","4.519160102518198"
"Ecole primaire Le Parterre","RUE DES CAPUCINS PROLONGES 42400 ST CHAMOND","0477221555","","45.479448410462155","4.511520600388074"
"Ecole primaire Le Bourg","16 rue du Rocher 42320 ST CHRISTO EN JAREZ","0477208543","","45.54466061662348","4.4878997701122865"
"Ecole élémentaire Fauriel","16 cours Fauriel 42100 ST ETIENNE","0477252452","","45.43008612486574","4.396130601469769"
"Ecole maternelle Richelandiere","97 rue Richelandière 42100 ST ETIENNE","0477331334","","45.43639035550118","4.4122394137415775"
"Ecole maternelle Gaspard Monge","21 rue Richelandière 42100 ST ETIENNE","0477331226","REP+","45.43886345874703","4.400889901515445"
"Ecole maternelle Terrasse","15 rue Léon Lamaizière 42000 ST ETIENNE","0477740819","","45.46664244660352","4.380479654081542"
"Ecole maternelle Chappe","3 impasse Noël Mazet 42000 ST ETIENNE","0477329163","REP","45.44023307149244","4.3925898047604175"
"Ecole primaire","Place de Verdun 42370 ST HAON LE CHATEL","0477644115","","46.06662194678907","3.914620485075425"
"Ecole primaire","Rue Entre Deux Ages 42220 ST JULIEN MOLIN MOLETTE","0477515197","","45.320446291193925","4.616229667630754"
"Ecole primaire Bourg","77 route du Sornin 42190 ST NIZIER SOUS CHARLIEU","0477608755","","46.1532001814561","4.118679625189365"
"Ecole primaire Bourg","47 route du lavoir 42600 ST THOMAS LA GARDE","0477961723","","45.567171622454744","4.081650434008821"
"Ecole maternelle Baraillère","4 rue Jean Baptiste Bruget 42650 ST JEAN BONNEFONDS","0477950802","","45.44742728428273","4.434099414247345"
"Ecole primaire de la Galoche","152 rue Alphonse Lacombe 42740 LA TERRASSE SUR DORLAY","0477209924","","45.44851886528724","4.584239693202464"
"Ecole maternelle Terrenoire Bourg","4 rue Emile Jaboulay TERRENOIRE 42100 ST ETIENNE","0477955290","","45.43408605298698","4.438640364930022"
"Ecole primaire Bourg","Bourg Virigneux 42140 VIRIGNEUX","0477944022","","45.68851176536551","4.353100061517747"
"Ecole maternelle Rosa Park","5 allée Rachel 42100 ST ETIENNE","0477571042","REP","45.42382618817036","4.381360506999007"
"Ecole primaire Buard","5 rue du Président Allende 42240 UNIEUX","0477563277","","45.40088926680792","4.260130590283476"
"Ecole Primaire Arthur Rimbaud","Rue Emile Zola 42160 ANDREZIEUX BOUTHEON","0477550198","","45.52735125226601","4.268350117812756"
"Ecole élémentaire Saint-Exupéry","Avenue du Forez 42800 RIVE DE GIER","0477750879","","45.518201665497585","4.5992503164797895"
"Ecole primaire Maria Callas","19 rue Charles Gounod 42000 ST ETIENNE","0477790051","REP+","45.47213628888807","4.4020400346860304"
"Ecole primaire Bourg","134 chemin de l'école 42470 FOURNEAUX","0477624660","","45.937465160801594","4.267720494218643"
"Ecole primaire Terrenoire Perrottière","Rue des Anciens Combattants d'Algérie TERRENOIRE 42100 ST ETIENNE","0477957428","","45.43132293208575","4.4421503493019365"
"Ecole primaire","4 rue du port 42510 BALBIGNY","0477281165","","45.81809103053383","4.181380084468899"
"Ecole primaire Moingt","2 place 19 mars 1962 42600 MONTBRISON","0477581169","","45.59227735919557","4.071875955638025"
"Ecole maternelle Sables","42 rue Jean Bailly 42300 MABLY","0477720548","REP","46.05830088157044","4.068319728161876"
"Ecole maternelle","4 impasse des Ecoles 42680 ST MARCELLIN EN FOREZ","0477528593","","45.49652031293206","4.166390630539492"
"Ecole élémentaire Debussy","3 rue du Chemin de Fer 42400 ST CHAMOND","0477221951","REP","45.46347705063345","4.502910308920665"
"Ecole primaire Paul Eluard","3 rue Fleming 42160 ANDREZIEUX BOUTHEON","0477552197","","45.53012689345969","4.266910552854093"
"Ecole maternelle Le Bourg","Rue de l'Eglise 42370 ST ANDRE D APCHON","0477659524","","46.033305619085645","3.929070112729811"
"Ecole primaire Bourg","12 rue des Liseurs 42810 ROZIER EN DONZY","0477280408","","45.79759207907342","4.276799363062419"
"Ecole maternelle Côte","7 rue Côté 42290 SORBIERS","0477533148","","45.48664212114537","4.450050237394075"
"Ecole primaire Fayol","123 boulevard Fayol 42700 FIRMINY","0477561181","","45.381522024022644","4.302310438758642"
"Ecole primaire Tuileries","Route de Paris 42300 MABLY","0477687329","REP","46.06984207343486","4.048300258575958"
"Ecole primaire Montat Verrerie","104  RUE DE LA MONTAT 42100 ST ETIENNE","0477254338","","45.44259207131339","4.411010173693918"
"Ecole primaire Bourg","74 rue de l'école 42130 ST ETIENNE LE MOLARD","0477975950","","45.731586988500574","4.088670523054962"
"Ecole maternelle Bourg","14 rue des Rosiers 42300 MABLY","0477723029","","46.08752926636746","4.066660624154721"
"Ecole primaire Bourg","Bourg l'Etang 42660 ST GENEST MALIFAUX","0477390739","","45.34175738193664","4.4179496734570645"
"Ecole élémentaire Bourg d'Ailleux","Bourg d'Ailleux 42130 AILLEUX","0477246646","","45.81493922589301","3.9388602915928357"
"Ecole élémentaire Bourg","LES AULMES 42260 BULLY","0477652464","","45.926581145069555","4.00063967918232"
"Ecole primaire Métare Cottencière","13 rue de l'Université 42100 ST ETIENNE","0477258213","","45.420218810224476","4.425289765976034"
"Ecole primaire Mâtel","142 rue de Charlieu 42300 ROANNE","0477720878","REP","46.04842690680064","4.082949828670732"
"Ecole maternelle Debussy","6 rue Jean Rivaud 42400 ST CHAMOND","0477222878","REP","45.46455761442305","4.502789792962796"
"Ecole primaire Bourg","Chemin de la Fayarde 42155 ST JEAN ST MAURICE SUR LOIRE","0477631391","","45.96732429354203","3.999950499863836"
"Ecole élémentaire Bourg","13 rue Langard 42152 L HORME","0477221741","REP+","45.486134418676144","4.545730307343064"
"Ecole élémentaire Jean Rostand","Rue Condorcet 42300 ROANNE","0477721855","REP","46.05755979494197","4.0903595901154555"
"Ecole élémentaire Chappe","7 rue des Frères Chappe 42000 ST ETIENNE","0477323599","REP","45.43981971461236","4.392080526955899"
"Ecole primaire George Sand","1 rue Charles de Gaulle 42270 ST PRIEST EN JAREZ","0477925300","","45.4796817111252","4.368389647595746"
"Ecole élémentaire La Terrasse","17 rue Léon Lamaizière 42000 ST ETIENNE","0477793281","","45.46632898867095","4.380410430369535"
"Ecole maternelle Pauzière","3 rue des Eaux Vives 42500 LE CHAMBON FEUGEROLLES","0477610019","REP","45.39742587462046","4.346759567323231"
"Ecole primaire Bourg","75 RUE DU VIEUX BOURG 42750 ST DENIS DE CABANNE","0477601504","","46.17242449683271","4.20910945571066"
"Ecole primaire  Bourg","52 rue des Ecoles 42720 POUILLY SOUS CHARLIEU","0477699313","","46.144040691719525","4.107530624639293"
"Ecole élémentaire Rosa Parks","9 allée Rachel 42100 ST ETIENNE","0477590832","REP","45.42371909182554","4.380769546635796"
"Ecole primaire","Rue de la Gare 42440 NOIRETABLE","0477247678","","45.816685366694635","3.761879476116277"
"Ecole élémentaire Flandin","27 rue Victor Hugo 42650 ST JEAN BONNEFONDS","0477951320","","45.44714885806072","4.434039771414604"
"Ecole élémentaire Gaspard Monge","7 rue Gaspard Monge 42100 ST ETIENNE","0477326158","REP+","45.4399324436665","4.399810257637199"
"Ecole primaire Monthieu","3 rue Linossier 42100 ST ETIENNE","0477333856","","45.440295828512646","4.417129634744565"
"Ecole maternelle Massenet Pasteur","11  RUE DE BRETAGNE 42400 ST CHAMOND","0477313264","REP+","45.47323719250358","4.532209438450486"
"Ecole primaire Paule et Joseph Thiollier","4  RUE RECHATIN 42000 ST ETIENNE","0477790570","REP","45.45002360195769","4.387129766052625"
"Ecole élémentaire","LE BOURG 42410 CHUYER","0474567693","","45.457302611590066","4.69373983740645"
"Ecole primaire Charles Perrault","1  IMPASSE DE LA BOISSONNETTE 42110 FEURS","0477260742","","45.73746160994776","4.228039846879001"
"Ecole primaire Le Perron","LE PERRON 42600 BARD","0477762592","","45.58734124366939","4.012720543621501"
"Ecole maternelle","Boulevard des Ecoles 42220 BOURG ARGENTAL","0477396076","","45.297736835101816","4.5628699662125545"
"Ecole maternelle Centre","9 rue Ledru Rollin 42120 LE COTEAU","0477727705","","46.02891560575416","4.0865594313584985"
"Ecole élémentaire Ligeay","LIGEAY 42130 DEBATS RIVIERE D ORPRA","0477245722","","45.7597073485565","3.941889858362617"
"Ecole primaire Malleray","115 chemin des Ecoliers 42600 ESSERTINES EN CHATELNEUF","0477585243","","45.6232821691577","4.00831952511751"
"Ecole maternelle Mas","12 boulevard Fayol 42700 FIRMINY","0477563365","","45.3911310076639","4.291819455410296"
"Ecole maternelle Waldeck Rousseau","9 rue Ferdinand Buisson 42700 FIRMINY","0477561489","","45.386044856454475","4.289840562081529"
"Ecole primaire Le Bourg","3 place de la Mairie 42140 FONTANES","0477208277","","45.54674543736131","4.437120618752564"
"Ecole primaire Antoine Meilland","Rue Jules Ferry 42330 CHAMBOEUF","0477949024","","45.576144826753406","4.323079716185905"
"Ecole maternelle CHARLES PERRAULT","21 rue Langard 42152 L HORME","0477221499","REP+","45.48505036872514","4.544660472016009"
"Ecole maternelle Le Geyser","174 rue du Geyser 42210 MONTROND LES BAINS","0477545179","","45.642681826869115","4.236389399700498"
"Ecole maternelle Wilson","39 rue Wilson 42300 ROANNE","0477721006","REP","46.05755641141691","4.091460362697138"
"Ecole primaire Rochetaillée","10  IMPASSE DE L'ECOLE ROCHETAILLEE 42100 ST ETIENNE","0477256535","","45.41156319980773","4.44470028606722"
"Ecole primaire Bourg","LE BOURG 42130 STE AGATHE LA BOUTERESSE","0477975474","","45.73451645237051","4.055820176813043"
"Ecole élémentaire Bourg","LE BOURG 42410 PAVEZIN","0477202060","","45.46552665604126","4.670609376527842"
"Ecole élémentaire","58 rue de la Marelle 42590 PINAY","0477634273","","45.87297890940805","4.136189736408557"
"Ecole primaire","Route de Saint-Anthème 42560 MARGERIE CHANTAGRET","0477763382","","45.52439298479872","4.026019391580124"
"Ecole élémentaire Bourg","LE BOURG 42560 MAROLS","0477765088","","45.4782947281783","4.04538041374634"
"Ecole élémentaire Bourg","LE BOURG 42600 MORNAND EN FOREZ","0477971794","","45.6768726971257","4.1240705683358945"
"Ecole primaire Bourg","Rue Antoine-Marie Flechet 42140 MARCENOD","0477208617","","45.5709989667003","4.482360216978196"
"Ecole élémentaire","103 rue des Chênes 42210 L HOPITAL LE GRAND","0477761363","","45.593037359030596","4.20043039455627"
"Ecole primaire l'Arc en ciel","LE BOURG 42460 JARNOSSE","0477605331","","46.109620723835945","4.2319803456229135"
"Ecole primaire","19 bis rue de la Semene 42660 JONZIEUX","0477399135","","45.3130232496963","4.362789899920016"
"Ecole primaire Bourg","Rue des Terreaux 42470 LAY","0477627303","","45.95580999811197","4.218900420324899"
"Ecole élémentaire Bourg","74 route de Violay 42540 STE COLOMBE SUR GAND","0477632989","","45.879405696675335","4.275240449234504"
"Ecole élémentaire Bourg","LE BOURG 42430 CHAUSSETERRE","0477650577","","45.896616756103406","3.7850503359460386"
"Ecole maternelle Le Bourg","34 place des culottes courtes 42114 ST CYR DE VALORGES","0477624405","","45.89276809828238","4.305929983137547"
"Ecole maternelle Fauriel","32 rue des Francs Maçons 42100 ST ETIENNE","0477252022","","45.430841605702476","4.394910146143815"
"Ecole maternelle Chavanelle","20 rue Marcellin Allard 42000 ST ETIENNE","0477213414","","45.435521979779075","4.393029505920757"
"Ecole maternelle Rivière","44 rue Parmentier 42100 ST ETIENNE","0477570013","","45.415855716355935","4.399530240191108"
"Ecole maternelle Tardy","2 boulevard Robert Maurice 42100 ST ETIENNE","0477254243","","45.428045123464244","4.382850505083027"
"Ecole maternelle Alma","3 rue de l'Alma 42000 ST ETIENNE","0477411605","REP","45.440861801632835","4.383119485877739"
"Ecole primaire","11 rue Centrale 42610 ST GEORGES HAUTE VILLE","0477760964","","45.55514469883509","4.099190297804521"
"Ecole primaire Bourg","LE BOURG 42990 ST JUST EN BAS","0477248251","","45.73095362746159","3.8798000204311993"
"Ecole primaire Bourg","124 rue des scieurs de long 42122 ST MARCEL DE FELINES","0477632493","","45.868101104300244","4.1923403782277795"
"Ecole élémentaire Bourg","373 route LE BOURG 42590 ST PRIEST LA ROCHE","0477649661","","45.91372724061457","4.092633546575146"
"Ecole primaire Bourg","1 ROUTE COTE GAUTHIER 42800 ST ROMAIN EN JAREZ","0477207616","","45.556376114588645","4.534049715151184"
"Ecole primaire Bourg","Allée des frènes 42660 ST ROMAIN LES ATHEUX","0477512558","","45.35557627740199","4.3769397601822275"
"Ecole primaire Les Petits Rats Blancs","25 route de Pont Trambouze 42460 SEVELINGES","0474899125","","46.09743307233742","4.29750973969513"
"Ecole élémentaire Michelet","Rue Michelet 42350 LA TALAUDIERE","0477536069","","45.48100928143638","4.429580519783591"
"Ecole élémentaire Victor Hugo","4 impasse Victor Hugo 42350 LA TALAUDIERE","0477536381","","45.482783894153314","4.436179986809898"
"Ecole maternelle Côte Quart","3 rue Paul Langevin 42240 UNIEUX","0477566925","","45.3975696567096","4.27984956500534"
"Ecole maternelle Bourg","19 rue Jean Moulin 42240 UNIEUX","0477561876","","45.40403283760718","4.261279526040326"
"Ecole primaire Bourg","Rue de l'école 42590 VENDRANGES","0477649660","","45.94171398162889","4.1372098894301255"
"Ecole élémentaire La Colombe","Avenue de la Coise 42330 ST GALMIER","0477540150","","45.589843052960845","4.311850574125644"
"Ecole maternelle Bourg","5 rue des écoles 42440 LES SALLES","0477247989","","45.844364073848666","3.7920098062605705"
"Ecole primaire Bourg","72 place de l'Ecole 42380 LURIECQ","0477500860","","45.45205488737141","4.080250484506012"
"Ecole maternelle Hanc Christian Andersen","15 rue du Premier Mai 42800 RIVE DE GIER","0477750140","","45.53301240811227","4.62676044954924"
"Ecole maternelle Victor Hugo","Avenue Gaffard 42500 LE CHAMBON FEUGEROLLES","0477613130","REP","45.38663187704131","4.308880310286598"
"Ecole maternelle Les Sables","29 rue Jean Rostand 42153 RIORGES","0477717374","","46.04607816320159","4.029390447358309"
"Ecole primaire Bourg","21 rue de l'église 42630 ST VICTOR SUR RHINS","0474642005","","46.00529912415722","4.283309877586484"
"Ecole primaire","Rue des Ecoles 42550 USSON EN FOREZ","0477506224","","45.387770701143225","3.940099629598593"
"Ecole élémentaire Les Sables","42 rue Jean Bailly 42300 MABLY","0477705658","REP","46.05830088157044","4.068319728161876"
"Ecole primaire Bourg","34 route du Canal 42210 BOISSET LES MONTROND","0477545160","","45.62412425231601","4.212470586854913"
"Ecole élémentaire Marcel Pagnol","4 rue Nelson Mandela 42150 LA RICAMARIE","0477574900","REP+","45.40686792749366","4.363419715495651"
"Ecole primaire Guizay","10 rue DU DOCTEUR LAENNEC 42100 ST ETIENNE","0477574112","","45.408858393710325","4.393360192007118"
"Ecole primaire Bergson","8 rue Claude Odde 42000 ST ETIENNE","0477746444","","45.45922289999867","4.383509995424029"
"Ecole élémentaire Marcel Pagnol","17 allée des Violettes 42340 VEAUCHE","0477947831","","45.56320005931757","4.308189467694303"
"Ecole maternelle Prévert","4 rue du Berry 42400 ST CHAMOND","0477225508","REP+","45.47655318782125","4.531559689666696"
"Ecole maternelle Champagne","14 rue Parmentier 42100 ST ETIENNE","0477575820","","45.41858618455634","4.398820176650485"
"Ecole primaire Roger Salengro","28 rue Jean Monnet LE FAY 42650 ST JEAN BONNEFONDS","0477532832","","45.46910361514211","4.448299671382103"
"Ecole élémentaire","Rue de l'Eglise 42370 ST ANDRE D APCHON","0477658089","","46.033305619085645","3.929070112729811"
"Ecole primaire Montreynaud Vivaldi","Allée Bela Bartok 42000 ST ETIENNE","0477740690","REP+","45.46741691900897","4.404360468204"
"Ecole maternelle Grand Clos","4 allée Descos 42000 ST ETIENNE","0477320149","REP","45.446350699971276","4.368749894670855"
"Ecole élémentaire Jacques Prévert","4 rue du Berry 42400 ST CHAMOND","0477220340","REP+","45.47655318782125","4.531559689666696"
"Ecole maternelle Prévert","9 rue du Fort de Troyon 42300 MABLY","0477681628","REP","46.072400617650985","4.075429654243019"
"Ecole élémentaire Thomas Pesquet","32 rue Frechat 42300 VILLEREST","0477696357","","45.99120915905253","4.03444050875132"
"Ecole élémentaire Mirandole","164 route de la Mirandole 42300 VILLEREST","0477671300","","46.01771501786176","4.048422430952462"
"Ecole primaire Jules Verne","1 place J. VERNE 42160 BONSON","0477550289","","45.525573069463704","4.219679416460883"
"Ecole élémentaire Jean Monnet","14 rue Emile Reymond 42610 ST ROMAIN LE PUY","0477766138","","45.5549213283378","4.124500197450758"
"Ecole primaire Centre 2","14 rue Claudius Buard 42100 ST ETIENNE","0477800476","","45.42112907628209","4.395600045990146"
"Ecole élémentaire Tarentaize","Place Jean-François Gonon 42000 ST ETIENNE","0477380408","REP","45.436711781298136","4.381809926465544"
"Ecole élémentaire Croix-Berthaud","12 rue du 8 Mai 42400 ST CHAMOND","0477222499","","45.46737318005804","4.514630020297368"
"Ecole élémentaire Soleil","10  RUE DE MONTEIL 42000 ST ETIENNE","0477323015","REP+","45.4491528630363","4.404560432595657"
"Ecole maternelle Berkeley","11  RUE DE LA VAPEUR 42100 ST ETIENNE","0477252096","","45.42852938277232","4.392840221607756"
"Ecole élémentaire Charles Exbrayat","38 impasse des Lucioles 42660 PLANFOY","0477514425","","45.38508494692695","4.439630328463563"
"Ecole primaire Fontquentin","6 rue de Bourgogne 42300 ROANNE","0477721732","REP","46.03961022357103","4.078040639055665"
"Ecole élémentaire Les Sources","Boulevard du Château 42210 MONTROND LES BAINS","0477545789","","45.64207290321099","4.235170209897096"
"Ecole primaire Soleysel Descours","7 rue Saint Ennemond 42000 ST ETIENNE","0477330377","REP","45.434380832368994","4.381680350995059"
"Ecole élémentaire Jules Ferry","3 rue des Eaux Vives 42500 LE CHAMBON FEUGEROLLES","0477612009","REP","45.39743138782968","4.346900313599447"
"Ecole élémentaire Pontet","331 rue Aristide Briand 42153 RIORGES","0477716675","","46.05058546169654","4.062110155245747"
"Ecole primaire Bourg","130 rue de la Plagne 42740 ST PAUL EN JAREZ","0477734490","","45.480924986485405","4.575149627412955"
"Ecole élémentaire Montaud","2 place Vittone 42000 ST ETIENNE","0477321337","REP","45.44588537257076","4.381289548293827"
"Ecole élémentaire Métare Réjaillère","1  CHEMIN CLAUDE BERTHIER 42100 ST ETIENNE","0477251622","","45.41606659886441","4.4169405300668725"
"Ecole primaire Bourg","87 route de Rivas 42330 CUZIEU","0477545395","","45.60800098424778","4.260010487831694"
"Ecole élémentaire Paillon","40 rue Paillon 42000 ST ETIENNE","0477332337","REP","45.43092283357815","4.37807054731589"
"Ecole élémentaire Verlaine","4 rue Aristide Briand 42400 ST CHAMOND","0477221908","REP","45.45761296815681","4.506410440265996"
"Ecole élémentaire Dora Rivière","31 rue Amouroux 42100 ST ETIENNE","0477572910","","45.41429908252439","4.40013936442888"
"Ecole primaire Bourg","AU BOURG 42310 LA PACAUDIERE","0477641198","","46.17514744113201","3.868769712914038"
"Ecole primaire Brillié","20 rue Brillié 42600 MONTBRISON","0477769569","","45.60757899530153","4.073270226230898"
"Ecole élémentaire Tardy","2 rue des Ferrandiniers 42100 ST ETIENNE","0477321204","","45.42736022855388","4.383470409494027"
"Ecole primaire Grand Quartier","25 rue des Ecoles 42290 SORBIERS","0477536650","","45.503476495116814","4.435329479554708"
"Ecole primaire Le Valjoly","112 chemin des Eversins 42290 SORBIERS","0477536715","","45.4931879763343","4.433840637623186"
"Ecole primaire","5 place du 19 mars 1962 42720 BRIENNON","0477608142","","46.14949831190612","4.084931420604599"
"Ecole primaire","Impasse Bonlieu 42720 LA BENISSON DIEU","0477666218","","46.15036103391778","4.045360251823231"
"Ecole primaire Le Bourg","Rue Traversière 42660 LE BESSAT","0477204061","","45.36917886220232","4.514259972472762"
"Ecole élémentaire","5 rue du Couvent 42220 BOURG ARGENTAL","0477396581","","45.297025235158415","4.56262031706662"
"Ecole élémentaire Bourg","LE BOURG 42220 BURDIGNES","0971720247","","45.26982830926089","4.56469968254212"
"Ecole primaire Alphonse Daudet","39 chemin de la Picote 42320 CELLIEU","0477731199","","45.51807604081813","4.542620151659543"
"Ecole maternelle Zola","Rue Joannes Guignard 42500 LE CHAMBON FEUGEROLLES","0477612090","REP","45.39047336269292","4.3244705733062565"
"Ecole élémentaire Verlieu","VERLIEU 42410 CHAVANAY","0474872584","","45.433187094705126","4.743060295683004"
"Ecole primaire Bourg","50 rue 42110 CLEPPE","0477264821","","45.769929398810795","4.178350587349209"
"Ecole primaire de la Tour","Place des tilleuls 42260 CREMEAUX","0477625164","","45.90835637845338","3.927090445805009"
"Ecole primaire","Rue du 8 Mai 42460 CUINZIER","0477605304","","46.127599356391165","4.265800542127118"
"Ecole primaire Bourg","119 MONTEE DES ECOLIERS 42670 ECOCHE","0477636974","","46.1603754127678","4.299510222348105"
"Ecole primaire Bourg","6 chemin des écoliers 42360 ESSERTINES EN DONZY","0477288119","","45.75318659862479","4.3463595434682"
"Ecole élémentaire Le Mas","10  BOULEVARD DE FAYOL 42700 FIRMINY","0477560940","","45.3913036597401","4.291060413569595"
"Ecole primaire Renée Peillon","Rue du Dorlay 42320 LA GRAND CROIX","0477732308","","45.50008263125781","4.573349398796828"
"Ecole primaire Teyssonneyre","61 rue Louis Pasteur 42320 LA GRAND CROIX","0477732270","","45.49893483869672","4.565709506955012"
"Ecole maternelle","237 rue de Gruyères 42370 RENAISON","0477642103","","46.05075208084094","3.923000177215463"
"Ecole maternelle Centre","2 place des écoles 42150 LA RICAMARIE","0477809035","REP+","45.40437191482442","4.366269587765497"
"Ecole maternelle Mulsant","35 rue Saint Alban 42300 ROANNE","0477721562","","46.035869340424235","4.058339817036788"
"Ecole maternelle Cousteau","3 rue Louis Comté 42230 ROCHE LA MOLIERE","0477906877","","45.4331390468026","4.3210601093644385"
"Ecole maternelle Côte Durieux","12 rue de la Chiorarie 42230 ROCHE LA MOLIERE","0477906512","","45.43565290030278","4.336160356663721"
"Ecole primaire Les Carrières","15 chemin des Carrières LE BOURG 42380 PERIGNEUX","0477307609","","45.44433660474521","4.15522975783897"
"Ecole primaire Bourg","38 place de la Mairie 42630 PRADINES","0988467627","","45.998149018607734","4.175520533555687"
"Ecole primaire Bourg","399 rue du bourg 42130 MARCOUX","0477974014","","45.71150999876593","4.011699179193862"
"Ecole primaire Bourg","Route des Plaines 42600 LEZIGNEUX","0477976018","","45.568756835763054","4.059689429027305"
"Ecole élémentaire Jean de la Fontaine","Place P.H. Bonnassies 42420 LORETTE","0477732085","","45.50871959742572","4.581699912613938"
"Ecole primaire Chavanne","CHAVANNE 42400 ST CHAMOND","0477221964","","45.49154433009998","4.487620055964321"
"Ecole maternelle Lamartine","Avenue Antoine Pinay 42400 ST CHAMOND","0477222344","REP","45.475305476489346","4.512659839179176"
"Ecole primaire Le Bourg","LE BOURG 42800 STE CROIX EN JAREZ","0477202116","","45.47968437961781","4.646279594685567"
"Ecole primaire Les Magnolias","18 rue Germaine Robin 42160 ST CYPRIEN","0477552456","","45.53636308541786","4.234749569801857"
"Ecole primaire Bourg","Place du Combattant 42210 ST CYR LES VIGNES","0477289106","","45.67564984742122","4.299350375751885"
"Ecole maternelle Montreynaud-Molina","9 boulevard Antonio Vivaldi 42000 ST ETIENNE","0477793293","REP+","45.466905157569144","4.3983204266370945"
"Ecole primaire Victor Elie Louis","81 rue des Verchères 42800 GENILAC","0477758549","","45.53399501642347","4.579809956845399"
"Ecole maternelle Bourg","LE BOURG 42510 ST GEORGES DE BAROILLE","0477654189","","45.848849870700555","4.129959454187185"
"Ecole primaire","160 rue des écoles 42640 ST GERMAIN LESPINASSE","0477645282","","46.10137473915813","3.966289935534224"
"Ecole élémentaire Bourg","LE BOURG 42130 ST LAURENT ROCHEFORT","0477976149","","45.77326204198266","3.923310370800155"
"Ecole élémentaire Bourg","24 chemin des sirènes 42110 ST MARTIN LESTRA","0477285255","","45.72019585073559","4.353070373235611"
"Ecole primaire St Michel et Vérin","Rue de la Faverge 42410 ST MICHEL SUR RHONE","0474566643","","45.44361388163137","4.740590363561244"
"Ecole primaire","4 route de Barret 42240 ST PAUL EN CORNILLON","0477357080","","45.396559310839706","4.236280026510211"
"Ecole primaire Cherbuet","20 traversée des écoliers 42120 ST VINCENT DE BOISSET","0477620221","","46.00847460450701","4.121559349906905"
"Ecole élémentaire Le Sapin Géant","24 route du pont Souvignet 42660 TARENTAISE","0477204165","","45.373132397984335","4.487520013592895"
"Ecole primaire","Place Just de Rostaing 42340 VEAUCHETTE","0477948102","","45.56210634386983","4.265189730983532"
"Ecole primaire Bourg","68 route de colombier 42520 VERANNE","0474873800","","45.368256983236385","4.661860442269544"
"Ecole maternelle Bourg","7 rue de l'Hôtel de Ville 42390 VILLARS","0477747421","","45.46677492854545","4.353340125659706"
"Ecole primaire","Route du Chêne 42780 VIOLAY","0474639198","","45.8520349513745","4.348039644036094"
"Ecole primaire Bourg","85 rue des écoliers 42140 VIRICELLES","0477549265","","45.652466327636006","4.374520476095129"
"Ecole maternelle Barques","60 chemin des Bateliers 42170 ST JUST ST RAMBERT","0477523170","","45.50269349055705","4.257679551719975"
"Ecole primaire Le Pontin","2 impasse Ferriol 42230 ROCHE LA MOLIERE","0477906335","","45.4145937672704","4.308429845999854"
"Ecole primaire Le Bourg","113 route de la Croix du Sud 42310 ST BONNET DES QUARTS","0477641753","","46.13125024817041","3.8448196880500793"
"Ecole maternelle Bourg","Impasse du Parc 42290 SORBIERS","0477532415","","45.489693959004256","4.449589575405761"
"Ecole maternelle Glycines","Avenue Paccard 42340 VEAUCHE","0477947485","","45.56152167667183","4.2852098705150325"
"Ecole élémentaire Les Glycines","1 AVENUE PACCARD 42340 VEAUCHE","0477546126","","45.56217178700501","4.277319648117536"
"Ecole élémentaire Hubert Reeves","1 PLACE DE L'ENTENTE 42290 SORBIERS","0477532520","","45.48939710195759","4.446979964380474"
"Ecole primaire Bourg","Rue de Roanne 42430 ST JUST EN CHEVALET","0477650409","","45.91907330959854","3.8454301355583413"
"Ecole primaire","150 rue des Ecoles 42540 ST JUST LA PENDUE","0477635024","","45.89428680945079","4.245639508215286"
"Ecole maternelle Jean Ravon","2 rue des Cyclotouristes 42390 VILLARS","0477746722","","45.463382037381635","4.360369429887562"
"Ecole maternelle","Rue Bayard 42600 SAVIGNEUX","0477967960","","45.611820211430306","4.0856105573128705"
"Ecole primaire Bourg","LE BOURG 42130 MONTVERDUN","0477975823","","45.71568696681421","4.067720056703979"
"Ecole primaire René Mure","Rue Jules Ferry 42120 COMMELLE VERNAY","0477708938","","45.998083100738604","4.063629481090308"
"Ecole élémentaire Lamartine","29 boulevard Aristide Briand 42650 ST JEAN BONNEFONDS","0477950678","","45.448656844182985","4.444469525535084"
"Ecole élémentaire Jean Jaurès","5 passage Jean Macé 42240 UNIEUX","0477560474","","45.404754858181896","4.26122047137157"
"Ecole élémentaire François Villon","Boulevard de Fonsala 42400 ST CHAMOND","0477227219","REP+","45.47628992883215","4.529400470097042"
"Ecole primaire Bourg","AU BOURG 42310 CHANGY","0477641816","","46.14158828718398","3.892760140522224"
"Ecole élémentaire Jacques Prévert","9 rue du Fort de Troyon 42300 MABLY","0477705507","REP","46.072400617650985","4.075429654243019"
"Ecole primaire Bourg","115 rue des écoles 42370 ST ALBAN LES EAUX","0477659530","","46.01060471158701","3.9382198514827964"
"Ecole élémentaire Bourg","2 place de l'école 42830 ST PRIEST LA PRUGNE","0477629164","","45.96080578442558","3.7498995492416274"
"Ecole maternelle Tarentaize","7 place Jean-François Gonon 42000 ST ETIENNE","0477380405","REP","45.436831109912234","4.381700322040715"
"Ecole primaire Les Moulins","Le Bourg 42430 CHERIER","0477631781","","45.96457235429248","3.908569641215131"
"Ecole primaire Bourg","31 rue de l'école 42330 ST MEDARD EN FOREZ","0477940658","","45.597398986704846","4.362610581730553"
"Ecole élémentaire La Tardive","17 boulevard Saint-Charles 42700 FIRMINY","0477617467","","45.38690565109336","4.281770526157807"
"Ecole élémentaire Bourg","LE BOURG 42600 GREZIEUX LE FROMENTAL","0477761536","","45.619382986361046","4.151750430246324"
"Ecole primaire Villeboeuf Le Haut","9 ter rue Horace Vernet 42000 ST ETIENNE","0477213262","","45.431440665538744","4.402190435579596"
"Ecole primaire Les cédres- peupliers","Place Jean Gapiand 42170 ST JUST ST RAMBERT","0477554841","","45.507698073741615","4.2624102597618005"
"Ecole maternelle Kergomard","41 rue Jean Rivaud 42400 ST CHAMOND","0477220440","","45.46389030246149","4.493139432200053"
"Ecole élémentaire Centre","Place Lucien Neuwirth 42120 LE COTEAU","0477727446","","46.02786733626409","4.087779890928266"
"Ecole primaire Jomayère","85 rue Jomayère 42100 ST ETIENNE","0477575401","","45.41043542320877","4.3821505071418585"
"Ecole élémentaire Montrambert","6 impasse Guy Môquet 42150 LA RICAMARIE","0477570075","REP+","45.40106893619104","4.36127945037419"
"Ecole primaire","Chemin des Côtes 42260 ST GERMAIN LAVAL","0477654180","","45.82748447870452","4.011999416861644"
"Ecole élémentaire Montreynaud Molina","3 rue Franz Schubert 42000 ST ETIENNE","0477792448","REP+","45.46653599720791","4.397590550005067"
"Ecole primaire Bourg","1 route de Chezenas 42520 MACLAS","0474873895","","45.360966311687875","4.685479505614042"
"Ecole primaire Sail sous Couzan et Leigneux","BOURG 42890 SAIL SOUS COUZAN","0477245977","","45.72902783274246","3.969560004423713"
"Ecole élémentaire Les Ovides","12 rue des Ovides 42100 ST ETIENNE","0477214986","REP","45.438054633674014","4.416669530719497"
"Ecole élémentaire Massenet Pasteur","1  RUE DE BRETAGNE 42400 ST CHAMOND","0477225617","REP+","45.47429345737095","4.532420351578845"
"Ecole primaire Bourg","Route de Chezenas 42520 ST PIERRE DE BOEUF","0474871005","","45.37384524811886","4.7415004611235"
"Ecole primaire Les Ollières","7 ter allée des peupliers 42580 L ETRAT","0477740989","","45.48721588798893","4.375409911247693"
"Ecole primaire Chatelard","20 rue Loubet 42400 ST CHAMOND","0477296587","REP","45.473949226077416","4.5060905230128565"
"Ecole élémentaire Montreynaud St Saëns","13 rue Jean-Sébastien Bach 42000 ST ETIENNE","0477741950","REP+","45.47273191159936","4.39340964323533"
"Ecole maternelle Montaud","5 boulevard Albert 1er 42000 ST ETIENNE","0477743724","REP","45.44839412122971","4.382119590811147"
"Ecole primaire Charles Gallet","10 boulevard Charles Gallet 42120 LE COTEAU","0477727917","","46.023396436230364","4.093814079261323"
"Ecole élémentaire Le Meynet","LE MEYNET 42130 ARTHUN","0477246407","","45.77463761855258","4.026450362595002"
"Ecole primaire Bourg","12 route de Montbrison 42600 CHALAIN D UZORE","0477970370","","45.67137673039401","4.0715694163663105"
"Ecole primaire Bourg","Impasse des écoles 42170 CHAMBLES","0477524598","","45.44145122698838","4.236810313598663"
"Ecole élémentaire Victor Hugo","7 rue Raoul Follereau 42500 LE CHAMBON FEUGEROLLES","0477561856","REP","45.38530786842765","4.306579418827878"
"Ecole primaire Croix Leigne","CROIX LEIGNE 42190 CHANDON","0477603250","","46.14932241566948","4.180519780029163"
"Ecole primaire","81 rue des Ecoles 42460 COUTOUVRE","0477662035","","46.07314647388012","4.210140602654731"
"Ecole élémentaire Philippe Monnet","43 route de St Bonnet des Quarts 42310 LE CROZET","0426244114","","46.1703123191798","3.8554900874743043"
"Ecole primaire Bourg","133 chemin des écoliers 42110 EPERCIEUX ST PAUL","0477270945","","45.791402446406686","4.2106596378094965"
"Ecole primaire du 8 Mai","26 rue du 8 Mai 42110 FEURS","0477260531","","45.745452082153456","4.222700357440185"
"Ecole maternelle Tardive","17 boulevard Saint-Charles 42700 FIRMINY","0477560749","","45.38690565109336","4.281770526157807"
"Ecole maternelle Parc","34 rue du Champ de Mars 42700 FIRMINY","0477561456","","45.39059959673099","4.286110510220405"
"Ecole primaire La Gimond","61 chemin de Picard 42140 LA GIMOND","0477309209","","45.556713472145105","4.411398064269159"
"Ecole maternelle Curie","2 rue Fleury Thévenet 42420 LORETTE","0477732707","","45.51166681249059","4.582510217407991"
"Ecole maternelle Montrambert","2 impasse Guy Môquet 42150 LA RICAMARIE","0477806013","REP+","45.40163419677703","4.360859907570762"
"Ecole élémentaire","Place de l'Ecole 42340 RIVAS","0477948547","","45.58553212201213","4.248139742235746"
"Ecole élémentaire Crozon","35 bis avenue Carnot 42300 ROANNE","0477721554","","46.04196811607486","4.069939625293927"
"Ecole primaire Bourg","228 rue du Pilat 42520 ROISEY","0474874880","","45.38727030660983","4.671990355233828"
"Ecole primaire Bourg","137 rue de la Mairie 42640 NOAILLY","0477666203","","46.13674110851943","4.011620324245449"
"Ecole primaire Bourg","LE BOURG 42260 POMMIERS EN FOREZ","0477654234","","45.83044831261969","4.06259050552085"
"Ecole primaire","208 rue des Chardons Bleus 42155 POUILLY LES NONAINS","0477668164","","46.0417174198619","3.985319560156859"
"Ecole primaire Bourg","120 rue de l'école 42600 PRECIEUX","0477766034","","45.58691078276187","4.150276742129108"
"Ecole primaire Bourg","35 rue de la Mairie 42360 MONTCHAL","0477286681","","45.82684606250412","4.31545042660672"
"Ecole primaire Bourg","LE BOURG 42720 NANDAX","0477653424","","46.097524337491926","4.163759387335891"
"Ecole primaire Bourg","LE BOURG 42520 MALLEVAL","0474871672","","45.38403939837329","4.726170350234503"
"Ecole primaire Jean Côte","550 route de Sainte-Anne 42130 MARCILLY LE CHATEL","0477974287","","45.69688399969971","4.029990402815794"
"Ecole primaire Bourg","107 rue du relais de poste 42110 ST BARTHELEMY LESTRA","0477285060","","45.72075483015958","4.341113522019544"
"Ecole maternelle Croix Berthaud","14 rue du 8 Mai 42400 ST CHAMOND","0477222836","","45.46748823241112","4.514780352398045"
"Ecole primaire Petit Coin","31 rue Palluat de Besset 42000 ST ETIENNE","0477329161","","45.44318636878038","4.3741706445200785"
"Ecole maternelle Soleil","16 rue de Monteil 42000 ST ETIENNE","0477253660","REP+","45.44830976452828","4.405290181974018"
"Ecole maternelle Vivaraize","4 passage du Pré des Soeurs 42100 ST ETIENNE","0477570467","","45.423428722631456","4.400910254347063"
"Ecole maternelle Côte Chaude","9 impasse Louis Jouvet 42000 ST ETIENNE","0477324866","REP","45.44546147187213","4.361600413868362"
"Ecole maternelle Paillon","2 A rue Basson 42000 ST ETIENNE","0477330477","REP","45.433345398218734","4.378220142549494"
"Ecole maternelle Pasteur","Rue de Montbrison 42530 ST GENEST LERPT","0477902257","","45.44762068324886","4.335340086524011"
"Ecole élémentaire La République","LA REPUBLIQUE 42660 ST GENEST MALIFAUX","0477514308","","45.358017699292255","4.4608904585449105"
"Ecole primaire Nelson Mandela","LE SARDON 42800 GENILAC","0477837944","","45.51919741527709","4.591160187623728"
"Ecole primaire Les Palices","LES PALICES 42370 ST HAON LE VIEUX","0477644442","","46.075775467380325","3.9068394748194537"
"ECOLE PRIMAIRE PUBLIQUE","Bourg 42590 ST JODARD","0477634157","","45.881354458196704","4.1306100199918"
"Ecole primaire Bourg","LE BOURG 42800 ST JOSEPH","0477751017","","45.557574621115855","4.620760236399691"
"Ecole primaire Bourg","Rue de la Thoranche 42210 ST LAURENT LA CONCHE","0477289276","","45.6827859387051","4.226190603759829"
"Ecole primaire du Pré Vert","ST PAUL DE VEZELIN 42590 VEZELIN SUR LOIRE","0477634029","","45.90893163526254","4.090302744426914"
"Ecole primaire Bourg","25 chemin du moulin 42110 SALT EN DONZY","0477265040","","45.7373910412732","4.290720603328312"
"Ecole élémentaire Bourg","2 place du Planil 42800 TARTARAS","0477837964","","45.55379304657855","4.667950139666649"
"Ecole primaire Bourg","3 rue des bretons 42580 LA TOUR EN JAREZ","0477747506","","45.48608947951976","4.38586038341162"
"Ecole élémentaire Bourg","LE BOURG 42210 UNIAS","0477545858","","45.60822140432131","4.227530430943858"
"Ecole primaire Bourg","54 impasse de l'Ecole 42320 VALFLEURY","0477208590","","45.52352480867518","4.492230042771228"
"Ecole primaire Bourg","15 allée des pommiers 42600 VERRIERES EN FOREZ","0477762616","","45.57114146880458","3.996370034943335"
"Ecole maternelle Bois Monzil","1 RUE MIRABEAU 42390 VILLARS","0477742938","","45.46538587423969","4.368810579705353"
"Ecole élémentaire Hubert Pouquet","6 rue des Ecoles 42390 VILLARS","0477747534","","45.46741459803242","4.354290042487961"
"Ecole primaire Bourg","19 place de l'école 42460 VILLERS","0477605503","","46.122224884634264","4.221450047772815"
"Ecole maternelle Métare Réjaillère","1  CHEMIN CLAUDE BERTHIER 42100 ST ETIENNE","0477213057","","45.41606659886441","4.4169405300668725"
"Ecole maternelle Ovides","6 rue des Ovides 42100 ST ETIENNE","0477214886","REP","45.43792984506964","4.4151402062354945"
"Ecole primaire Jules Verne","7 route du Berne 42330 AVEIZIEUX","0477940099","","45.564811978571825","4.370409383995325"
"Ecole élémentaire Les Sables","664 rue Raymond Poincaré 42153 RIORGES","0477680831","","46.04618141636801","4.028730209679356"
"Ecole élémentaire Magand","Place du 8 Mai 1945 42290 SORBIERS","0477532454","","45.48928359738261","4.450819611890431"
"Ecole maternelle Thomas Pesquet","1068 rue Jean Moulin 42300 VILLEREST","0477696017","","45.99204345654064","4.033709396071725"
"Ecole élémentaire Bourg","LE BOURG 42460 LA GRESLE","0474644263","","46.07537078450619","4.283019498050551"
"Ecole élémentaire Francs Maçons","8 bis rue des Francs Maçons 42100 ST ETIENNE","0477213465","","45.430542065224685","4.3921999498052395"
"Ecole primaire Bourg","174 rue de Trébande 42640 ST ROMAIN LA MOTTE","0477645224","","46.08456378759558","3.9835099079233345"
"Ecole élémentaire Bourg","28 place de la bascule 42520 ST APPOLINARD","0474873252","","45.34157668083669","4.6518497355804165"
"Ecole maternelle Pagnol","Rue Pagnol 42340 VEAUCHE","0477546389","","45.56757704955335","4.303530595801503"
"Ecole élémentaire Pasteur","Rue de Montbrison 42530 ST GENEST LERPT","0477902330","","45.44762068324886","4.335340086524011"
"Ecole primaire Francis Nicolas","43 avenue Berthelot 42152 L HORME","0477221743","REP+","45.49207925243392","4.555790501235669"
"Ecole élémentaire Grand Clos","6 allée Vital Descos 42000 ST ETIENNE","0477256639","REP","45.446186633332324","4.369279374486381"
"Ecole primaire Estiallet","Rue de la Blanchisserie 42600 MONTBRISON","0477585189","","45.60756741674936","4.044069812454453"
"Ecole maternelle Mirandole","164 route de la Mirandole 42300 VILLEREST","0477729690","","46.01771501786176","4.048422430952462"
"Ecole élémentaire Guitton","15 rue du Bois Monzil Le Haut 42390 VILLARS","0477796411","","45.466192095889845","4.366800544357036"
"Ecole primaire Simone Veil","0 rue Buissonnière 42155 LENTIGNY","0477633413","","45.995565336716744","3.9786800573629058"
"Ecole primaire Bourg","Chemin Vieux 42590 NEULISE","0477646292","","45.89881986874828","4.18269992252489"
"Ecole maternelle Montreynaud St Saëns","13 rue Jean Sébastien Bach 42000 ST ETIENNE","0477793929","REP+","45.47369996054916","4.3934902489643415"
"École maternelle publique Simone Veil","195 chemin de la Madone 42450 SURY LE COMTAL","0477300622","","45.53613418808706","4.192410224010479"
"École primaire publique Simone Veil","195 chemin de la Madone 42450 SURY LE COMTAL","0477308222","","45.53613418808706","4.192410224010479"
"Ecole primaire Victor Hugo","1 place Victor Hugo 42160 ANDREZIEUX BOUTHEON","0477365526","","45.54161590667886","4.266970404558546"
"Ecole élémentaire Zola Pasteur","Rue Joannes Guignard 42500 LE CHAMBON FEUGEROLLES","0477610074","REP","45.39047336269292","4.3244705733062565"
"Ecole élémentaire Côte Quart","3 rue Paul Langevin 42240 UNIEUX","0477561330","","45.3975696567096","4.27984956500534"
"Ecole élémentaire Côte Chaude","11  RUE DE LA ROCHE DU GEAI 42000 ST ETIENNE","0477328171","REP","45.44382140264075","4.363979522247504"
"Groupe Scolaire Les Petits Chapeliers","6 rue Emile Rivoire 42140 CHAZELLES SUR LYON","0477549297","","45.6368306089655","4.392260173814994"
"Ecole élémentaire Chavanelle","16 rue Marcellin Allard 42000 ST ETIENNE","0477250143","","45.43601991883037","4.3928194040410835"
"Ecole primaire Clermont","14 rue Lakanal 42300 ROANNE","0477721496","","46.029073276931946","4.063860335463663"
"Ecole primaire des marronniers","1 route DE PERIGNEUX 42240 ST MAURICE EN GOURGOIS","0477503077","","45.40357671229858","4.182170339801686"
"Ecole élémentaire La Veue","7 rue Coraly Royet 42100 ST ETIENNE","0477579729","","45.42056512730075","4.396120447591424"
"Ecole primaire Vigneron","14 rue Etienne Visseyriat 42240 UNIEUX","0477562754","","45.395739207359725","4.264103004671356"
"Ecole élémentaire Centre","2 place des écoles 42150 LA RICAMARIE","0477804119","REP+","45.40437191482442","4.366269587765497"
"Ecole primaire Chaléassière","6 rue Jean François Revollier 42000 ST ETIENNE","0477741030","","45.454081178237715","4.38126038521043"
"Ecole primaire","Chemin des Molières 42700 FIRMINY","0477613355","","45.38074271100257","4.288630160781235"
"Ecole élémentaire Mulsant","5 rue des Ecoles 42300 ROANNE","0477721606","","46.037619823731895","4.059039457672935"
"Ecole primaire Lamartine","1 rue des Ecoles 42500 LE CHAMBON FEUGEROLLES","0477610274","REP","45.39424412599443","4.301949994059182"
"Ecole primaire Bourg","50 place de l'école 42110 POUILLY LES FEURS","0477263195","","45.79723896516079","4.229760441464896"
"Ecole primaire","Place des écoles 42510 BUSSIERES","0477273009","","45.837388464171404","4.268860563683233"
"Ecole primaire Jules  Ferry","44 rue de la Berge 42300 ROANNE","0477721889","","46.031798738225504","4.071379975386684"
"Ecole primaire Jean Macé","59 route de l'Etrat 42270 ST PRIEST EN JAREZ","0477790516","","45.4783642933794","4.382120283150085"
